{
  "type": "FeatureCollection",
  "features": [
    {
      "type": "Feature",
      "properties": {
        "norad_id": 41581,
        "name": "INTELSAT 31 (IS-31)",
        "group": "intelsat",
        "lat": 0.011952689658626765,
        "lon": 107.5185302074262,
        "alt_km": 35787.3911260101,
        "timestamp": "2025-12-20T07:33:50.471679+00:00",
        "meta_object_name": "INTELSAT 31 (IS-31)",
        "meta_object_id": "2016-035A",
        "meta_epoch": "2025-12-19T12:19:46.200288",
        "meta_mean_motion": 1.0026847,
        "meta_eccentricity": 0.0002165,
        "meta_inclination": 0.0258,
        "meta_ra_of_asc_node": 271.2551,
        "meta_arg_of_pericenter": 288.2416,
        "meta_mean_anomaly": 338.7582,
        "meta_ephemeris_type": 0,
        "meta_classification_type": "U",
        "meta_norad_cat_id": 41581,
        "meta_element_set_no": 999,
        "meta_rev_at_epoch": 3488,
        "meta_bstar": 0,
        "meta_mean_motion_dot": -1.26e-06,
        "meta_mean_motion_ddot": 0,
        "tle_line1": "1 41581U 16035A   25353.51372917 -.00000126  00000+0  00000+0 0  9995",
        "tle_line2": "2 41581   0.0258 271.2551 0002165 288.2416 338.7582  1.00268470 34881"
      },
      "geometry": {
        "type": "Point",
        "coordinates": [
          107.5185302074262,
          0.011952689658626765
        ]
      }
    },
    {
      "type": "Feature",
      "properties": {
        "norad_id": 41747,
        "name": "INTELSAT 36 (IS-36)",
        "group": "intelsat",
        "lat": -0.037492504887589664,
        "lon": -88.92321380509989,
        "alt_km": 35783.363187520896,
        "timestamp": "2025-12-20T07:33:50.471691+00:00",
        "meta_object_name": "INTELSAT 36 (IS-36)",
        "meta_object_id": "2016-053A",
        "meta_epoch": "2025-12-19T20:26:10.703328",
        "meta_mean_motion": 1.00272409,
        "meta_eccentricity": 0.00013071,
        "meta_inclination": 0.0105,
        "meta_ra_of_asc_node": 10.1169,
        "meta_arg_of_pericenter": 323.6744,
        "meta_mean_anomaly": 129.9347,
        "meta_ephemeris_type": 0,
        "meta_classification_type": "U",
        "meta_norad_cat_id": 41747,
        "meta_element_set_no": 999,
        "meta_rev_at_epoch": 3415,
        "meta_bstar": 0,
        "meta_mean_motion_dot": 0,
        "meta_mean_motion_ddot": 0,
        "tle_line1": "1 41747U 16053A   25353.85151277  .00000000  00000+0  00000+0 0  9990",
        "tle_line2": "2 41747   0.0105  10.1169 0001307 323.6744 129.9347  1.00272409 34152"
      },
      "geometry": {
        "type": "Point",
        "coordinates": [
          -88.92321380509989,
          -0.037492504887589664
        ]
      }
    },
    {
      "type": "Feature",
      "properties": {
        "norad_id": 41945,
        "name": "INTELSAT 32E (IS-32E)",
        "group": "intelsat",
        "lat": 0.03628711675621538,
        "lon": 159.41819078265752,
        "alt_km": 35788.63245326092,
        "timestamp": "2025-12-20T07:33:50.471702+00:00",
        "meta_object_name": "INTELSAT 32E (IS-32E)",
        "meta_object_id": "2017-007B",
        "meta_epoch": "2025-12-19T06:12:37.307232",
        "meta_mean_motion": 1.00269829,
        "meta_eccentricity": 7.1e-05,
        "meta_inclination": 0.0325,
        "meta_ra_of_asc_node": 74.0804,
        "meta_arg_of_pericenter": 315.5885,
        "meta_mean_anomaly": 108.4146,
        "meta_ephemeris_type": 0,
        "meta_classification_type": "U",
        "meta_norad_cat_id": 41945,
        "meta_element_set_no": 999,
        "meta_rev_at_epoch": 3242,
        "meta_bstar": 0,
        "meta_mean_motion_dot": -2.44e-06,
        "meta_mean_motion_ddot": 0,
        "tle_line1": "1 41945U 17007B   25353.25876513 -.00000244  00000+0  00000+0 0  9992",
        "tle_line2": "2 41945   0.0325  74.0804 0000710 315.5885 108.4146  1.00269829 32423"
      },
      "geometry": {
        "type": "Point",
        "coordinates": [
          159.41819078265752,
          0.03628711675621538
        ]
      }
    },
    {
      "type": "Feature",
      "properties": {
        "norad_id": 42818,
        "name": "INTELSAT 35E (IS-35E)",
        "group": "intelsat",
        "lat": 0.003583345648854597,
        "lon": 168.09442763173323,
        "alt_km": 35788.23095278026,
        "timestamp": "2025-12-20T07:33:50.471714+00:00",
        "meta_object_name": "INTELSAT 35E (IS-35E)",
        "meta_object_id": "2017-041A",
        "meta_epoch": "2025-12-19T11:20:21.674976",
        "meta_mean_motion": 1.00271336,
        "meta_eccentricity": 0.0001837,
        "meta_inclination": 0.0061,
        "meta_ra_of_asc_node": 84.092,
        "meta_arg_of_pericenter": 188.559,
        "meta_mean_anomaly": 311.2747,
        "meta_ephemeris_type": 0,
        "meta_classification_type": "U",
        "meta_norad_cat_id": 42818,
        "meta_element_set_no": 999,
        "meta_rev_at_epoch": 3101,
        "meta_bstar": 0,
        "meta_mean_motion_dot": -2.13e-06,
        "meta_mean_motion_ddot": 0,
        "tle_line1": "1 42818U 17041A   25353.47247309 -.00000213  00000+0  00000+0 0  9995",
        "tle_line2": "2 42818   0.0061  84.0920 0001837 188.5590 311.2747  1.00271336 31013"
      },
      "geometry": {
        "type": "Point",
        "coordinates": [
          168.09442763173323,
          0.003583345648854597
        ]
      }
    },
    {
      "type": "Feature",
      "properties": {
        "norad_id": 42950,
        "name": "INTELSAT 37E (IS-37E)",
        "group": "intelsat",
        "lat": 0.004197896355587856,
        "lon": -175.452068,
        "alt_km": 35783.34376411114,
        "timestamp": "2025-12-20T07:33:50.471726+00:00",
        "meta_object_name": "INTELSAT 37E (IS-37E)",
        "meta_object_id": "2017-059A",
        "meta_epoch": "2025-12-19T09:45:18.086976",
        "meta_mean_motion": 1.00269424,
        "meta_eccentricity": 0.000296,
        "meta_inclination": 0.0268,
        "meta_ra_of_asc_node": 16.2864,
        "meta_arg_of_pericenter": 242.3064,
        "meta_mean_anomaly": 317.9748,
        "meta_ephemeris_type": 0,
        "meta_classification_type": "U",
        "meta_norad_cat_id": 42950,
        "meta_element_set_no": 999,
        "meta_rev_at_epoch": 3026,
        "meta_bstar": 0,
        "meta_mean_motion_dot": 0,
        "meta_mean_motion_ddot": 0,
        "tle_line1": "1 42950U 17059A   25353.40645934  .00000000  00000+0  00000+0 0  9993",
        "tle_line2": "2 42950   0.0268  16.2864 0002960 242.3064 317.9748  1.00269424 30261"
      },
      "geometry": {
        "type": "Point",
        "coordinates": [
          -175.452068,
          0.004197896355587856
        ]
      }
    },
    {
      "type": "Feature",
      "properties": {
        "norad_id": 43632,
        "name": "AZERSPACE 2 (IS-38)",
        "group": "intelsat",
        "lat": -0.04354631363149666,
        "lon": -112.28977530771071,
        "alt_km": 35781.920353423695,
        "timestamp": "2025-12-20T07:33:50.471738+00:00",
        "meta_object_name": "AZERSPACE 2 (IS-38)",
        "meta_object_id": "2018-074A",
        "meta_epoch": "2025-12-19T20:49:38.856576",
        "meta_mean_motion": 1.00270657,
        "meta_eccentricity": 0.00011478,
        "meta_inclination": 0.0175,
        "meta_ra_of_asc_node": 340.8081,
        "meta_arg_of_pericenter": 291.2785,
        "meta_mean_anomaly": 174.1513,
        "meta_ephemeris_type": 0,
        "meta_classification_type": "U",
        "meta_norad_cat_id": 43632,
        "meta_element_set_no": 999,
        "meta_rev_at_epoch": 2665,
        "meta_bstar": 0,
        "meta_mean_motion_dot": 1.61e-06,
        "meta_mean_motion_ddot": 0,
        "tle_line1": "1 43632U 18074A   25353.86781084  .00000161  00000+0  00000+0 0  9994",
        "tle_line2": "2 43632   0.0175 340.8081 0001147 291.2785 174.1513  1.00270657 26653"
      },
      "geometry": {
        "type": "Point",
        "coordinates": [
          -112.28977530771071,
          -0.04354631363149666
        ]
      }
    },
    {
      "type": "Feature",
      "properties": {
        "norad_id": 43633,
        "name": "HORIZONS-3E",
        "group": "intelsat",
        "lat": 0.006266667964552674,
        "lon": 11.59879111000231,
        "alt_km": 35784.56112604245,
        "timestamp": "2025-12-20T07:33:50.471749+00:00",
        "meta_object_name": "HORIZONS-3E",
        "meta_object_id": "2018-074B",
        "meta_epoch": "2025-12-19T11:25:38.578080",
        "meta_mean_motion": 1.00273661,
        "meta_eccentricity": 4.75e-05,
        "meta_inclination": 0.0419,
        "meta_ra_of_asc_node": 184.4159,
        "meta_arg_of_pericenter": 126.4195,
        "meta_mean_anomaly": 117.8859,
        "meta_ephemeris_type": 0,
        "meta_classification_type": "U",
        "meta_norad_cat_id": 43633,
        "meta_element_set_no": 999,
        "meta_rev_at_epoch": 2653,
        "meta_bstar": 0,
        "meta_mean_motion_dot": -5e-08,
        "meta_mean_motion_ddot": 0,
        "tle_line1": "1 43633U 18074B   25353.47614095 -.00000005  00000+0  00000+0 0  9997",
        "tle_line2": "2 43633   0.0419 184.4159 0000475 126.4195 117.8859  1.00273661 26532"
      },
      "geometry": {
        "type": "Point",
        "coordinates": [
          11.59879111000231,
          0.006266667964552674
        ]
      }
    }
  ]
}